[{"OBJECT_NAME":"STARLINK-35788","OBJECT_ID":"2025-280L","EPOCH":"2026-03-09T23:39:18.558144","MEAN_MOTION":14.98331939,"ECCENTRICITY":0.00020887,"INCLINATION":70.0032,"RA_OF_ASC_NODE":333.5703,"ARG_OF_PERICENTER":267.0048,"MEAN_ANOMALY":93.0873,"EPHEMERIS_TYPE":0,"CLASSIFICATION_TYPE":"U","NORAD_CAT_ID":66831,"ELEMENT_SET_NO":999,"REV_AT_EPOCH":1612,"BSTAR":0.00071711575,"MEAN_MOTION_DOT":8.474e-5,"MEAN_MOTION_DDOT":0},{"OBJECT_NAME":"ION SCV-021","OBJECT_ID":"2025-276DT","EPOCH":"2026-03-09T17:54:19.585728","MEAN_MOTION":14.97286526,"ECCENTRICITY":0.00131375,"INCLINATION":97.5322,"RA_OF_ASC_NODE":142.8125,"ARG_OF_PERICENTER":96.8695,"MEAN_ANOMALY":263.4023,"EPHEMERIS_TYPE":0,"CLASSIFICATION_TYPE":"U","NORAD_CAT_ID":67483,"ELEMENT_SET_NO":999,"REV_AT_EPOCH":772,"BSTAR":0.00021144867,"MEAN_MOTION_DOT":2.399e-5,"MEAN_MOTION_DDOT":0}]
